FORMOSAT 7-3            
1 44343U 19036E   26065.38766424  .00007002  00000+0  41139-3 0  9995
2 44343  23.9984 165.6142 0001296 122.9347 237.1281 15.08885794367696
FORMOSAT 7-1            
1 44349U 19036L   26066.14802215  .00003982  00000+0  32031-3 0  9999
2 44349  23.9993   0.0697 0001016  69.6435 290.4175 14.96002250369357
FORMOSAT 7-4            
1 44350U 19036M   26066.03672997  .00003729  00000+0  29837-3 0  9990
2 44350  23.9989  62.9145 0001367  80.5816 279.4840 14.95992077368756
FORMOSAT 7-2            
1 44351U 19036N   26066.19258130  .00003949  00000+0  31744-3 0  9991
2 44351  23.9979 116.1809 0001001  87.6780 272.3835 14.96001353368292
FORMOSAT 7-6            
1 44353U 19036Q   26066.05945867  .00003793  00000+0  30376-3 0  9995
2 44353  23.9977 297.9091 0001141   4.0353 356.0157 14.96009270366502
FORMOSAT 7-5            
1 44358U 19036V   26066.17020383  .00003835  00000+0  30746-3 0  9998
2 44358  23.9971 235.9050 0000849  74.2738 285.7856 14.96006677367051
METEOR-M2 2             
1 44387U 19038A   26066.17589781  .00000102  00000+0  63995-4 0  9991
2 44387  98.9085  51.9926 0001041   9.2004 350.9193 14.24332488346776
COSMOS 2535             
1 44421U 19039A   26066.19127874  .00001490  00000+0  15333-3 0  9997
2 44421  97.5895  98.2109 0008248 182.3843 177.7338 14.91704676361438
GLOBAL-4                
1 44499U 19054E   26066.12015042  .00044482  00000+0  64482-3 0  9992
2 44499  45.0066 101.2700 0006080 352.4411   7.6390 15.55178178364420
ZY-1 02D                
1 44528U 19059A   26066.16140064 -.00000001  00000+0  14213-4 0  9995
2 44528  98.3310 131.2073 0002556  79.4969 280.6505 14.35448075339707
TAURUS-1 (JINNIUZUO 1)  
1 44530U 19059C   26066.17703880  .00007689  00000+0  12677-2 0  9998
2 44530  98.6304 224.8261 0008344 265.9661  94.0590 14.70753465343646
ZHUHAI-1 03B            
1 44536U 19060C   26066.19077892  .00041940  00000+0  80553-3 0  9992
2 44536  97.5402 218.9979 0008630 331.0384  29.0385 15.47805328360510
ZHUHAI-1 03C            
1 44537U 19060D   26066.16536054  .00120682  00000+0  97237-3 0  9998
2 44537  97.5516 228.2530 0011114 276.7218  83.2779 15.70458044361083
ZHUHAI-1 03D            
1 44538U 19060E   26066.20302441  .00037473  00000+0  83160-3 0  9990
2 44538  97.5251 212.0326 0008151 316.9005  43.1603 15.43595832360315
ZHUHAI-1 03E            
1 44539U 19060F   26066.18300714  .00027242  00000+0  74687-3 0  9996
2 44539  97.5461 212.9606 0006233  36.5252 323.6416 15.37245512360078
ATLAS 5 CENTAUR DEB     
1 44694U 18079BG  26065.13889090 -.00000154  00000+0  00000+0 0  9998
2 44694  13.5139  47.7299 4747083 282.5892  29.9712  1.77432724 44733
GAOFEN-7                
1 44703U 19072A   26066.18914509  .00005835  00000+0  26307-3 0  9995
2 44703  97.2546 131.4323 0016122  38.4091 321.8289 15.21283110352138
