[{"OBJECT_NAME":"FORMOSAT 7-3","OBJECT_ID":"2019-036E","EPOCH":"2026-03-06T09:18:14.190336","MEAN_MOTION":15.08885794,"ECCENTRICITY":0.00012961,"INCLINATION":23.9984,"RA_OF_ASC_NODE":165.6142,"ARG_OF_PERICENTER":122.9347,"MEAN_ANOMALY":237.1281,"EPHEMERIS_TYPE":0,"CLASSIFICATION_TYPE":"U","NORAD_CAT_ID":44343,"ELEMENT_SET_NO":999,"REV_AT_EPOCH":36769,"BSTAR":0.00041139317,"MEAN_MOTION_DOT":7.002e-5,"MEAN_MOTION_DDOT":0},{"OBJECT_NAME":"FORMOSAT 7-1","OBJECT_ID":"2019-036L","EPOCH":"2026-03-07T03:33:09.113760","MEAN_MOTION":14.9600225,"ECCENTRICITY":0.0001016,"INCLINATION":23.9993,"RA_OF_ASC_NODE":0.0697,"ARG_OF_PERICENTER":69.6435,"MEAN_ANOMALY":290.4175,"EPHEMERIS_TYPE":0,"CLASSIFICATION_TYPE":"U","NORAD_CAT_ID":44349,"ELEMENT_SET_NO":999,"REV_AT_EPOCH":36935,"BSTAR":0.00032031,"MEAN_MOTION_DOT":3.982e-5,"MEAN_MOTION_DDOT":0},{"OBJECT_NAME":"FORMOSAT 7-4","OBJECT_ID":"2019-036M","EPOCH":"2026-03-07T00:52:53.469408","MEAN_MOTION":14.95992077,"ECCENTRICITY":0.0001367,"INCLINATION":23.9989,"RA_OF_ASC_NODE":62.9145,"ARG_OF_PERICENTER":80.5816,"MEAN_ANOMALY":279.484,"EPHEMERIS_TYPE":0,"CLASSIFICATION_TYPE":"U","NORAD_CAT_ID":44350,"ELEMENT_SET_NO":999,"REV_AT_EPOCH":36875,"BSTAR":0.00029837,"MEAN_MOTION_DOT":3.729e-5,"MEAN_MOTION_DDOT":0},{"OBJECT_NAME":"FORMOSAT 7-2","OBJECT_ID":"2019-036N","EPOCH":"2026-03-07T04:37:19.024320","MEAN_MOTION":14.96001353,"ECCENTRICITY":0.0001001,"INCLINATION":23.9979,"RA_OF_ASC_NODE":116.1809,"ARG_OF_PERICENTER":87.678,"MEAN_ANOMALY":272.3835,"EPHEMERIS_TYPE":0,"CLASSIFICATION_TYPE":"U","NORAD_CAT_ID":44351,"ELEMENT_SET_NO":999,"REV_AT_EPOCH":36829,"BSTAR":0.00031744,"MEAN_MOTION_DOT":3.949e-5,"MEAN_MOTION_DDOT":0},{"OBJECT_NAME":"FORMOSAT 7-6","OBJECT_ID":"2019-036Q","EPOCH":"2026-03-07T01:25:37.229088","MEAN_MOTION":14.9600927,"ECCENTRICITY":0.0001141,"INCLINATION":23.9977,"RA_OF_ASC_NODE":297.9091,"ARG_OF_PERICENTER":4.0353,"MEAN_ANOMALY":356.0157,"EPHEMERIS_TYPE":0,"CLASSIFICATION_TYPE":"U","NORAD_CAT_ID":44353,"ELEMENT_SET_NO":999,"REV_AT_EPOCH":36650,"BSTAR":0.00030376,"MEAN_MOTION_DOT":3.793e-5,"MEAN_MOTION_DDOT":0},{"OBJECT_NAME":"FORMOSAT 7-5","OBJECT_ID":"2019-036V","EPOCH":"2026-03-07T04:05:05.610912","MEAN_MOTION":14.96006677,"ECCENTRICITY":8.49e-5,"INCLINATION":23.9971,"RA_OF_ASC_NODE":235.905,"ARG_OF_PERICENTER":74.2738,"MEAN_ANOMALY":285.7856,"EPHEMERIS_TYPE":0,"CLASSIFICATION_TYPE":"U","NORAD_CAT_ID":44358,"ELEMENT_SET_NO":999,"REV_AT_EPOCH":36705,"BSTAR":0.00030746,"MEAN_MOTION_DOT":3.835e-5,"MEAN_MOTION_DDOT":0},{"OBJECT_NAME":"METEOR-M2 2","OBJECT_ID":"2019-038A","EPOCH":"2026-03-07T04:13:17.570784","MEAN_MOTION":14.24332488,"ECCENTRICITY":0.0001041,"INCLINATION":98.9085,"RA_OF_ASC_NODE":51.9926,"ARG_OF_PERICENTER":9.2004,"MEAN_ANOMALY":350.9193,"EPHEMERIS_TYPE":0,"CLASSIFICATION_TYPE":"U","NORAD_CAT_ID":44387,"ELEMENT_SET_NO":999,"REV_AT_EPOCH":34677,"BSTAR":6.3995e-5,"MEAN_MOTION_DOT":1.02e-6,"MEAN_MOTION_DDOT":0},{"OBJECT_NAME":"COSMOS 2535","OBJECT_ID":"2019-039A","EPOCH":"2026-03-07T04:35:26.483136","MEAN_MOTION":14.91704676,"ECCENTRICITY":0.0008248,"INCLINATION":97.5895,"RA_OF_ASC_NODE":98.2109,"ARG_OF_PERICENTER":182.3843,"MEAN_ANOMALY":177.7338,"EPHEMERIS_TYPE":0,"CLASSIFICATION_TYPE":"U","NORAD_CAT_ID":44421,"ELEMENT_SET_NO":999,"REV_AT_EPOCH":36143,"BSTAR":0.00015333,"MEAN_MOTION_DOT":1.49e-5,"MEAN_MOTION_DDOT":0},{"OBJECT_NAME":"GLOBAL-4","OBJECT_ID":"2019-054E","EPOCH":"2026-03-07T02:53:00.996288","MEAN_MOTION":15.55178178,"ECCENTRICITY":0.000608,"INCLINATION":45.0066,"RA_OF_ASC_NODE":101.27,"ARG_OF_PERICENTER":352.4411,"MEAN_ANOMALY":7.639,"EPHEMERIS_TYPE":0,"CLASSIFICATION_TYPE":"U","NORAD_CAT_ID":44499,"ELEMENT_SET_NO":999,"REV_AT_EPOCH":36442,"BSTAR":0.00064482,"MEAN_MOTION_DOT":0.00044482,"MEAN_MOTION_DDOT":0},{"OBJECT_NAME":"ZY-1 02D","OBJECT_ID":"2019-059A","EPOCH":"2026-03-07T03:52:25.015296","MEAN_MOTION":14.35448075,"ECCENTRICITY":0.0002556,"INCLINATION":98.331,"RA_OF_ASC_NODE":131.2073,"ARG_OF_PERICENTER":79.4969,"MEAN_ANOMALY":280.6505,"EPHEMERIS_TYPE":0,"CLASSIFICATION_TYPE":"U","NORAD_CAT_ID":44528,"ELEMENT_SET_NO":999,"REV_AT_EPOCH":33970,"BSTAR":1.4213e-5,"MEAN_MOTION_DOT":-1.0e-8,"MEAN_MOTION_DDOT":0},{"OBJECT_NAME":"TAURUS-1 (JINNIUZUO 1)","OBJECT_ID":"2019-059C","EPOCH":"2026-03-07T04:14:56.152320","MEAN_MOTION":14.70753465,"ECCENTRICITY":0.0008344,"INCLINATION":98.6304,"RA_OF_ASC_NODE":224.8261,"ARG_OF_PERICENTER":265.9661,"MEAN_ANOMALY":94.059,"EPHEMERIS_TYPE":0,"CLASSIFICATION_TYPE":"U","NORAD_CAT_ID":44530,"ELEMENT_SET_NO":999,"REV_AT_EPOCH":34364,"BSTAR":0.0012677,"MEAN_MOTION_DOT":7.689e-5,"MEAN_MOTION_DDOT":0},{"OBJECT_NAME":"ZHUHAI-1 03B","OBJECT_ID":"2019-060C","EPOCH":"2026-03-07T04:34:43.298688","MEAN_MOTION":15.47805328,"ECCENTRICITY":0.000863,"INCLINATION":97.5402,"RA_OF_ASC_NODE":218.9979,"ARG_OF_PERICENTER":331.0384,"MEAN_ANOMALY":29.0385,"EPHEMERIS_TYPE":0,"CLASSIFICATION_TYPE":"U","NORAD_CAT_ID":44536,"ELEMENT_SET_NO":999,"REV_AT_EPOCH":36051,"BSTAR":0.00080553,"MEAN_MOTION_DOT":0.0004194,"MEAN_MOTION_DDOT":0},{"OBJECT_NAME":"ZHUHAI-1 03C","OBJECT_ID":"2019-060D","EPOCH":"2026-03-07T03:58:07.150656","MEAN_MOTION":15.70458044,"ECCENTRICITY":0.0011114,"INCLINATION":97.5516,"RA_OF_ASC_NODE":228.253,"ARG_OF_PERICENTER":276.7218,"MEAN_ANOMALY":83.2779,"EPHEMERIS_TYPE":0,"CLASSIFICATION_TYPE":"U","NORAD_CAT_ID":44537,"ELEMENT_SET_NO":999,"REV_AT_EPOCH":36108,"BSTAR":0.00097237,"MEAN_MOTION_DOT":0.00120682,"MEAN_MOTION_DDOT":0},{"OBJECT_NAME":"ZHUHAI-1 03D","OBJECT_ID":"2019-060E","EPOCH":"2026-03-07T04:52:21.309024","MEAN_MOTION":15.43595832,"ECCENTRICITY":0.0008151,"INCLINATION":97.5251,"RA_OF_ASC_NODE":212.0326,"ARG_OF_PERICENTER":316.9005,"MEAN_ANOMALY":43.1603,"EPHEMERIS_TYPE":0,"CLASSIFICATION_TYPE":"U","NORAD_CAT_ID":44538,"ELEMENT_SET_NO":999,"REV_AT_EPOCH":36031,"BSTAR":0.0008316,"MEAN_MOTION_DOT":0.00037473,"MEAN_MOTION_DDOT":0},{"OBJECT_NAME":"ZHUHAI-1 03E","OBJECT_ID":"2019-060F","EPOCH":"2026-03-07T04:23:31.816896","MEAN_MOTION":15.37245512,"ECCENTRICITY":0.0006233,"INCLINATION":97.5461,"RA_OF_ASC_NODE":212.9606,"ARG_OF_PERICENTER":36.5252,"MEAN_ANOMALY":323.6416,"EPHEMERIS_TYPE":0,"CLASSIFICATION_TYPE":"U","NORAD_CAT_ID":44539,"ELEMENT_SET_NO":999,"REV_AT_EPOCH":36007,"BSTAR":0.00074687,"MEAN_MOTION_DOT":0.00027242,"MEAN_MOTION_DDOT":0},{"OBJECT_NAME":"ATLAS 5 CENTAUR DEB","OBJECT_ID":"2018-079BG","EPOCH":"2026-03-06T03:20:00.173760","MEAN_MOTION":1.77432724,"ECCENTRICITY":0.4747083,"INCLINATION":13.5139,"RA_OF_ASC_NODE":47.7299,"ARG_OF_PERICENTER":282.5892,"MEAN_ANOMALY":29.9712,"EPHEMERIS_TYPE":0,"CLASSIFICATION_TYPE":"U","NORAD_CAT_ID":44694,"ELEMENT_SET_NO":999,"REV_AT_EPOCH":4473,"BSTAR":0,"MEAN_MOTION_DOT":-1.54e-6,"MEAN_MOTION_DDOT":0},{"OBJECT_NAME":"GAOFEN-7","OBJECT_ID":"2019-072A","EPOCH":"2026-03-07T04:32:22.135776","MEAN_MOTION":15.2128311,"ECCENTRICITY":0.0016122,"INCLINATION":97.2546,"RA_OF_ASC_NODE":131.4323,"ARG_OF_PERICENTER":38.4091,"MEAN_ANOMALY":321.8289,"EPHEMERIS_TYPE":0,"CLASSIFICATION_TYPE":"U","NORAD_CAT_ID":44703,"ELEMENT_SET_NO":999,"REV_AT_EPOCH":35213,"BSTAR":0.00026307,"MEAN_MOTION_DOT":5.835e-5,"MEAN_MOTION_DDOT":0}]
